IRIDIUM 36 [-]          
1 24967U 97056C   24095.78818093  .00000490  00000+0  15969-3 0  9994
2 24967  86.4022 357.1039 0002180  81.3302 278.8142 14.36710528389254
IRIDIUM 39 [-]          
1 25042U 97069D   24095.89141981  .00000866  00000+0  22839-3 0  9991
2 25042  86.3947  38.9008 0017391 336.0675  23.9718 14.47810122385513
IRIDIUM 44 [-]          
1 25078U 97077B   24095.94069238  .00000627  00000+0  19564-3 0  9995
2 25078  86.3972  46.1582 0003598  60.8778 299.2780 14.39287876380649
IRIDIUM 45 [-]          
1 25104U 97082A   24095.88029395  .00018582  00000+0  10823-2 0  9991
2 25104  86.3707 256.6025 0166701 145.5328 215.6854 15.00816585385859
IRIDIUM 24 [-]          
1 25105U 97082B   24095.91080420  .00000590  00000+0  17706-3 0  9990
2 25105  86.3861 265.8933 0013568  86.3385 273.9366 14.41052353380071
IRIDIUM 51 [-]          
1 25262U 98018A   24095.88397025  .00017457  00000+0  84714-3 0  9995
2 25262  86.3889 266.6314 0153185  92.7985 269.0795 15.08507069380350
